{"type": "FeatureCollection", "features": [ {"type": "Feature", "properties": {"norad_id": 66678, "name": "TRANSPORTER-15N", "group": "last-30-days", "lat": -12.630432110482765, "lon": -108.8521687780081, "alt_km": 523.6827839637945, "timestamp": "2025-12-27T08:36:17.076746+00:00", "meta": {"OBJECT_NAME": "TRANSPORTER-15N", "OBJECT_ID": "2025-276N", "EPOCH": "2025-12-27T04:35:30.238080", "MEAN_MOTION": 15.16778811, "ECCENTRICITY": 0.0005339, "INCLINATION": 97.4381, "RA_OF_ASC_NODE": 72.6614, "ARG_OF_PERICENTER": 34.2642, "MEAN_ANOMALY": 325.8935, "EPHEMERIS_TYPE": 0, "CLASSIFICATION_TYPE": "U", "NORAD_CAT_ID": 66678, "ELEMENT_SET_NO": 999, "REV_AT_EPOCH": 431, "BSTAR": -0.0048913, "MEAN_MOTION_DOT": -0.00094833, "MEAN_MOTION_DDOT": 0}, "tle": {"line1": "1 66678U 25276N   25361.19132220 -.00094833  00000+0 -48913-2 0  9997", "line2": "2 66678  97.4381  72.6614 0005339  34.2642 325.8935 15.16778811  4312"}}, "geometry": {"type": "Point", "coordinates": [-108.8521687780081, -12.630432110482765]}}, {"type": "Feature", "properties": {"norad_id": 66679, "name": "TRANSPORTER-15P", "group": "last-30-days", "lat": -2.6230588555128724, "lon": -107.52174042859336, "alt_km": 517.2606217384446, "timestamp": "2025-12-27T08:36:17.076757+00:00", "meta": {"OBJECT_NAME": "TRANSPORTER-15P", "OBJECT_ID": "2025-276P", "EPOCH": "2025-12-27T04:38:07.435104", "MEAN_MOTION": 15.16730766, "ECCENTRICITY": 0.0004778, "INCLINATION": 97.4358, "RA_OF_ASC_NODE": 72.6589, "ARG_OF_PERICENTER": 238.2223, "MEAN_ANOMALY": 121.8545, "EPHEMERIS_TYPE": 0, "CLASSIFICATION_TYPE": "U", "NORAD_CAT_ID": 66679, "ELEMENT_SET_NO": 999, "REV_AT_EPOCH": 431, "BSTAR": 0.00022335, "MEAN_MOTION_DOT": 4.314e-05, "MEAN_MOTION_DDOT": 0}, "tle": {"line1": "1 66679U 25276P   25361.19314161  .00004314  00000+0  22335-3 0  9998", "line2": "2 66679  97.4358  72.6589 0004778 238.2223 121.8545 15.16730766  4313"}}, "geometry": {"type": "Point", "coordinates": [-107.52174042859336, -2.6230588555128724]}}, {"type": "Feature", "properties": {"norad_id": 66680, "name": "TRANSPORTER-15Q", "group": "last-30-days", "lat": -12.897111953481021, "lon": -108.87315048594016, "alt_km": 516.9974241513528, "timestamp": "2025-12-27T08:36:17.076767+00:00", "meta": {"OBJECT_NAME": "TRANSPORTER-15Q", "OBJECT_ID": "2025-276Q", "EPOCH": "2025-12-27T04:35:25.199232", "MEAN_MOTION": 15.1689381, "ECCENTRICITY": 0.0004915, "INCLINATION": 97.4406, "RA_OF_ASC_NODE": 72.6775, "ARG_OF_PERICENTER": 227.0286, "MEAN_ANOMALY": 133.0536, "EPHEMERIS_TYPE": 0, "CLASSIFICATION_TYPE": "U", "NORAD_CAT_ID": 66680, "ELEMENT_SET_NO": 999, "REV_AT_EPOCH": 431, "BSTAR": 0.00047009, "MEAN_MOTION_DOT": 9.202e-05, "MEAN_MOTION_DDOT": 0}, "tle": {"line1": "1 66680U 25276Q   25361.19126388  .00009202  00000+0  47009-3 0  9998", "line2": "2 66680  97.4406  72.6775 0004915 227.0286 133.0536 15.16893810  4319"}}, "geometry": {"type": "Point", "coordinates": [-108.87315048594016, -12.897111953481021]}}, {"type": "Feature", "properties": {"norad_id": 66681, "name": "TRANSPORTER-15R", "group": "last-30-days", "lat": -50.70784871071403, "lon": -116.35006788888849, "alt_km": 516.9595864321627, "timestamp": "2025-12-27T08:36:17.076777+00:00", "meta": {"OBJECT_NAME": "TRANSPORTER-15R", "OBJECT_ID": "2025-276R", "EPOCH": "2025-12-27T04:25:25.231584", "MEAN_MOTION": 15.17605881, "ECCENTRICITY": 0.0004912, "INCLINATION": 97.4329, "RA_OF_ASC_NODE": 72.6596, "ARG_OF_PERICENTER": 256.9865, "MEAN_ANOMALY": 103.082, "EPHEMERIS_TYPE": 0, "CLASSIFICATION_TYPE": "U", "NORAD_CAT_ID": 66681, "ELEMENT_SET_NO": 999, "REV_AT_EPOCH": 431, "BSTAR": 0.00097522, "MEAN_MOTION_DOT": 0.00019582, "MEAN_MOTION_DDOT": 0}, "tle": {"line1": "1 66681U 25276R   25361.18431981  .00019582  00000+0  97522-3 0  9993", "line2": "2 66681  97.4329  72.6596 0004912 256.9865 103.0820 15.17605881  4319"}}, "geometry": {"type": "Point", "coordinates": [-116.35006788888849, -50.70784871071403]}}, {"type": "Feature", "properties": {"norad_id": 66682, "name": "TRANSPORTER-15S", "group": "last-30-days", "lat": -3.083855691901325, "lon": -107.55089464178988, "alt_km": 526.7776952357053, "timestamp": "2025-12-27T08:36:17.076787+00:00", "meta": {"OBJECT_NAME": "TRANSPORTER-15S", "OBJECT_ID": "2025-276S", "EPOCH": "2025-12-26T23:51:45.550944", "MEAN_MOTION": 15.13006162, "ECCENTRICITY": 0.0016564, "INCLINATION": 97.4342, "RA_OF_ASC_NODE": 72.4972, "ARG_OF_PERICENTER": 119.3207, "MEAN_ANOMALY": 240.9682, "EPHEMERIS_TYPE": 0, "CLASSIFICATION_TYPE": "U", "NORAD_CAT_ID": 66682, "ELEMENT_SET_NO": 999, "REV_AT_EPOCH": 428, "BSTAR": -0.028772, "MEAN_MOTION_DOT": -0.00477853, "MEAN_MOTION_DDOT": 0}, "tle": {"line1": "1 66682U 25276S   25360.99427721 -.00477853  00000+0 -28772-1 0  9999", "line2": "2 66682  97.4342  72.4972 0016564 119.3207 240.9682 15.13006162  4285"}}, "geometry": {"type": "Point", "coordinates": [-107.55089464178988, -3.083855691901325]}}, {"type": "Feature", "properties": {"norad_id": 66683, "name": "TRANSPORTER-15T", "group": "last-30-days", "lat": -26.532229127381225, "lon": -110.88208682557658, "alt_km": 517.1926109707829, "timestamp": "2025-12-27T08:36:17.076797+00:00", "meta": {"OBJECT_NAME": "TRANSPORTER-15T", "OBJECT_ID": "2025-276T", "EPOCH": "2025-12-27T04:31:49.226016", "MEAN_MOTION": 15.17079723, "ECCENTRICITY": 0.0004901, "INCLINATION": 97.4443, "RA_OF_ASC_NODE": 72.6943, "ARG_OF_PERICENTER": 222.4698, "MEAN_ANOMALY": 137.6157, "EPHEMERIS_TYPE": 0, "CLASSIFICATION_TYPE": "U", "NORAD_CAT_ID": 66683, "ELEMENT_SET_NO": 999, "REV_AT_EPOCH": 431, "BSTAR": 0.00048899, "MEAN_MOTION_DOT": 9.626e-05, "MEAN_MOTION_DDOT": 0}, "tle": {"line1": "1 66683U 25276T   25361.18876419  .00009626  00000+0  48899-3 0  9995", "line2": "2 66683  97.4443  72.6943 0004901 222.4698 137.6157 15.17079723  4310"}}, "geometry": {"type": "Point", "coordinates": [-110.88208682557658, -26.532229127381225]}}, {"type": "Feature", "properties": {"norad_id": 66684, "name": "TRANSPORTER-15U", "group": "last-30-days", "lat": -48.59751177104325, "lon": -115.6517740327719, "alt_km": 517.2966742454191, "timestamp": "2025-12-27T08:36:17.076834+00:00", "meta": {"OBJECT_NAME": "TRANSPORTER-15U", "OBJECT_ID": "2025-276U", "EPOCH": "2025-12-27T04:25:58.410912", "MEAN_MOTION": 15.174306, "ECCENTRICITY": 0.0004694, "INCLINATION": 97.4467, "RA_OF_ASC_NODE": 72.7085, "ARG_OF_PERICENTER": 221.2792, "MEAN_ANOMALY": 138.8087, "EPHEMERIS_TYPE": 0, "CLASSIFICATION_TYPE": "U", "NORAD_CAT_ID": 66684, "ELEMENT_SET_NO": 999, "REV_AT_EPOCH": 431, "BSTAR": 0.0007234, "MEAN_MOTION_DOT": 0.00014425, "MEAN_MOTION_DDOT": 0}, "tle": {"line1": "1 66684U 25276U   25361.18470383  .00014425  00000+0  72340-3 0  9997", "line2": "2 66684  97.4467  72.7085 0004694 221.2792 138.8087 15.17430600  4316"}}, "geometry": {"type": "Point", "coordinates": [-115.6517740327719, -48.59751177104325]}}, {"type": "Feature", "properties": {"norad_id": 66685, "name": "TRANSPORTER-15V", "group": "last-30-days", "lat": -65.68971912935677, "lon": -123.95383438548966, "alt_km": 506.8024336261624, "timestamp": "2025-12-27T08:36:17.076846+00:00", "meta": {"OBJECT_NAME": "TRANSPORTER-15V", "OBJECT_ID": "2025-276V", "EPOCH": "2025-12-27T02:47:35.884320", "MEAN_MOTION": 15.21953501, "ECCENTRICITY": 0.0008559, "INCLINATION": 97.4444, "RA_OF_ASC_NODE": 72.6316, "ARG_OF_PERICENTER": 36.5472, "MEAN_ANOMALY": 323.6347, "EPHEMERIS_TYPE": 0, "CLASSIFICATION_TYPE": "U", "NORAD_CAT_ID": 66685, "ELEMENT_SET_NO": 999, "REV_AT_EPOCH": 430, "BSTAR": 0.15372, "MEAN_MOTION_DOT": 0.03971994, "MEAN_MOTION_DDOT": 0}, "tle": {"line1": "1 66685U 25276V   25361.11638755  .03971994  00000+0  15372+0 0  9994", "line2": "2 66685  97.4444  72.6316 0008559  36.5472 323.6347 15.21953501  4301"}}, "geometry": {"type": "Point", "coordinates": [-123.95383438548966, -65.68971912935677]}}, {"type": "Feature", "properties": {"norad_id": 66686, "name": "TRANSPORTER-15W", "group": "last-30-days", "lat": -30.735942381293057, "lon": -111.59503650954024, "alt_km": 517.779643841005, "timestamp": "2025-12-27T08:36:17.076856+00:00", "meta": {"OBJECT_NAME": "TRANSPORTER-15W", "OBJECT_ID": "2025-276W", "EPOCH": "2025-12-27T04:30:41.999040", "MEAN_MOTION": 15.17073945, "ECCENTRICITY": 0.0004379, "INCLINATION": 97.4444, "RA_OF_ASC_NODE": 72.6966, "ARG_OF_PERICENTER": 221.4396, "MEAN_ANOMALY": 138.6506, "EPHEMERIS_TYPE": 0, "CLASSIFICATION_TYPE": "U", "NORAD_CAT_ID": 66686, "ELEMENT_SET_NO": 999, "REV_AT_EPOCH": 431, "BSTAR": 0.00059362, "MEAN_MOTION_DOT": 0.000117, "MEAN_MOTION_DDOT": 0}, "tle": {"line1": "1 66686U 25276W   25361.18798610  .00011700  00000+0  59362-3 0  9997", "line2": "2 66686  97.4444  72.6966 0004379 221.4396 138.6506 15.17073945  4311"}}, "geometry": {"type": "Point", "coordinates": [-111.59503650954024, -30.735942381293057]}}, {"type": "Feature", "properties": {"norad_id": 66687, "name": "TRANSPORTER-15X", "group": "last-30-days", "lat": 2.6002705130412025, "lon": -106.835073727227, "alt_km": 522.2985841992195, "timestamp": "2025-12-27T08:36:17.076882+00:00", "meta": {"OBJECT_NAME": "TRANSPORTER-15X", "OBJECT_ID": "2025-276X", "EPOCH": "2025-12-27T04:39:35.069760", "MEAN_MOTION": 15.16821541, "ECCENTRICITY": 0.0008087, "INCLINATION": 97.4384, "RA_OF_ASC_NODE": 72.6637, "ARG_OF_PERICENTER": 40.1556, "MEAN_ANOMALY": 320.0274, "EPHEMERIS_TYPE": 0, "CLASSIFICATION_TYPE": "U", "NORAD_CAT_ID": 66687, "ELEMENT_SET_NO": 999, "REV_AT_EPOCH": 431, "BSTAR": 0.00078015, "MEAN_MOTION_DOT": 0.00015303, "MEAN_MOTION_DDOT": 0}, "tle": {"line1": "1 66687U 25276X   25361.19415590  .00015303  00000+0  78015-3 0  9991", "line2": "2 66687  97.4384  72.6637 0008087  40.1556 320.0274 15.16821541  4315"}}, "geometry": {"type": "Point", "coordinates": [-106.835073727227, 2.6002705130412025]}}]}